H1 CPF 01  gfz 2021 11 10 13  8142 tandemx   
H2 1003001  6202 36605    2021 11 10 12 59 42 2021 11 15 00 00 42   120 1 1  0 0 0
H9
10 0 59528  46782.000000  0     417492.632   4372943.159  -5313972.844
10 0 59528  46902.000000  0     706757.619   4993822.026  -4700238.456
10 0 59528  47022.000000  0     993800.129   5522846.388  -4004217.165
10 0 59528  47142.000000  0    1271923.316   5950812.751  -3238019.035
10 0 59528  47262.000000  0    1534430.557   6270377.514  -2415012.965
10 0 59528  47382.000000  0    1774778.136   6476195.780  -1549597.330
10 0 59528  47502.000000  0    1986728.729   6565022.901   -656947.520
10 0 59528  47622.000000  0    2164501.462   6535774.497    247254.699
10 0 59528  47742.000000  0    2302914.153   6389543.232   1147103.309
10 0 59528  47862.000000  0    2397514.688   6129572.215   2026755.538
10 0 59528  47982.000000  0    2444697.824   5761185.335   2870718.953
10 0 59528  48102.000000  0    2441804.931   5291676.642   3664131.968
10 0 59528  48222.000000  0    2387203.611   4730161.031   4393032.400
10 0 59528  48342.000000  0    2280344.602   4087388.975   5044608.861
10 0 59528  48462.000000  0    2121794.017   3375528.753   5607425.050
10 0 59528  48582.000000  0    1913243.524   2607929.002   6071615.806
10 0 59528  48702.000000  0    1657497.133   1798862.757   6429056.151
10 0 59528  48822.000000  0    1358433.809    963256.494   6673498.159
10 0 59528  48942.000000  0    1020947.700    116411.967   6800672.823
10 0 59528  49062.000000  0     650867.693   -726272.738   6808359.903
10 0 59528  49182.000000  0     254856.498  -1549583.139   6696425.926
10 0 59528  49302.000000  0    -159709.543  -2338763.115   6466826.148
10 0 59528  49422.000000  0    -584877.767  -3079779.990   6123572.092
10 0 59528  49542.000000  0   -1012269.906  -3759574.960   5672663.473
10 0 59528  49662.000000  0   -1433244.063  -4366294.315   5121989.171
10 0 59528  49782.000000  0   -1839068.233  -4889501.478   4481198.011
10 0 59528  49902.000000  0   -2221101.500  -5320365.684   3761536.023
10 0 59528  50022.000000  0   -2570977.996  -5651820.632   2975650.942
10 0 59528  50142.000000  0   -2880788.671  -5878687.423   2137368.984
10 0 59528  50262.000000  0   -3143257.092  -5997761.284   1261449.021
10 0 59528  50382.000000  0   -3351905.266  -6007859.714    363317.366
10 0 59528  50502.000000  0   -3501205.037  -5909830.038   -541211.328
10 0 59528  50622.000000  0   -3586711.262  -5706516.091  -1436221.444
10 0 59528  50742.000000  0   -3605173.117  -5402683.962  -2305985.506
10 0 59528  50862.000000  0   -3554620.821  -5004909.136  -3135248.006
10 0 59528  50982.000000  0   -3434425.235  -4521428.308  -3909497.591
10 0 59528  51102.000000  0   -3245329.313  -3961961.068  -4615221.184
10 0 59528  51222.000000  0   -2989451.993  -3337506.988  -5240136.202
10 0 59528  51342.000000  0   -2670264.996  -2660122.524  -5773397.358
10 0 59528  51462.000000  0   -2292543.521  -1942683.594  -6205775.319
10 0 59528  51582.000000  0   -1862291.429  -1198638.572  -6529806.132
10 0 59528  51702.000000  0   -1386642.900   -441756.282  -6739908.246
10 0 59528  51822.000000  0    -873744.046    314125.324  -6832467.286
10 0 59528  51942.000000  0    -332615.550   1055345.790  -6805891.227
10 0 59528  52062.000000  0     227002.514   1768662.627  -6660634.602
10 0 59528  52182.000000  0     794820.274   2441481.495  -6399192.762
10 0 59528  52302.000000  0    1360183.567   3062075.223  -6026065.339
10 0 59528  52422.000000  0    1912269.544   3619786.912  -5547686.227
10 0 59528  52542.000000  0    2440290.292   4105213.598  -4972323.062
10 0 59528  52662.000000  0    2933701.700   4510368.856  -4309946.182
10 0 59528  52782.000000  0    3382413.684   4828821.466  -3572066.391
10 0 59528  52902.000000  0    3776997.662   5055805.728  -2771543.554
10 0 59528  53022.000000  0    4108887.437   5188300.700  -1922367.326
10 0 59528  53142.000000  0    4370566.559   5225075.385  -1039414.279
10 0 59528  53262.000000  0    4555738.972   5166700.109   -138185.007
10 0 59528  53382.000000  0    4659477.610   5015519.937    765474.225
10 0 59528  53502.000000  0    4678345.241   4775591.883   1655657.161
10 0 59528  53622.000000  0    4610487.377   4452589.835   2516684.849
10 0 59528  53742.000000  0    4455694.062   4053675.832   3333392.021
10 0 59528  53862.000000  0    4215425.361   3587341.109   4091401.938
10 0 59528  53982.000000  0    3892803.240   3063222.313   4777383.136
10 0 59528  54102.000000  0    3492571.642   2491899.095   5379286.169
10 0 59528  54222.000000  0    3021020.575   1884674.964   5886554.601
10 0 59528  54342.000000  0    2485881.983   1253350.203   6290304.561
10 0 59528  54462.000000  0    1896198.668    609989.297   6583474.303
10 0 59528  54582.000000  0    1262168.054    -33309.802   6760940.985
10 0 59528  54702.000000  0     594963.753   -664641.955   6819606.388
10 0 59528  54822.000000  0     -93462.391  -1272515.699   6758447.925
10 0 59528  54942.000000  0    -790594.628  -1846062.055   6578534.724
10 0 59528  55062.000000  0   -1483580.487  -2375228.967   6283008.888
10 0 59528  55182.000000  0   -2159465.513  -2850957.085   5877032.952
10 0 59528  55302.000000  0   -2805434.115  -3265336.477   5367707.274
10 0 59528  55422.000000  0   -3409055.955  -3611742.697   4763953.481
10 0 59528  55542.000000  0   -3958530.035  -3884946.460   4076362.216
10 0 59528  55662.000000  0   -4442919.434  -4081195.655   3317010.473
10 0 59528  55782.000000  0   -4852373.485  -4198268.501   2499251.629
10 0 59528  55902.000000  0   -5178333.652  -4235496.997   1637479.997
10 0 59528  56022.000000  0   -5413716.353  -4193757.995    746872.522
10 0 59528  56142.000000  0   -5553067.958  -4075432.188   -156885.240
10 0 59528  56262.000000  0   -5592688.222  -3884332.467  -1057883.900
10 0 59528  56382.000000  0   -5530718.427  -3625602.847  -1940280.310
10 0 59528  56502.000000  0   -5367190.487  -3305589.712  -2788584.727
10 0 59528  56622.000000  0   -5104037.945  -2931691.136  -3587937.652
10 0 59528  56742.000000  0   -4745069.470  -2512187.670  -4324371.850
10 0 59528  56862.000000  0   -4295906.028  -2056059.302  -4985054.763
10 0 59528  56982.000000  0   -3763883.332  -1572793.299  -5558506.926
10 0 59528  57102.000000  0   -3157922.990  -1072186.888  -6034793.046
10 0 59528  57222.000000  0   -2488375.814   -564149.601  -6405683.257
10 0 59528  57342.000000  0   -1766840.333    -58509.606  -6664783.904
10 0 59528  57462.000000  0   -1005960.139    435172.216  -6807635.746
10 0 59528  57582.000000  0    -219205.699    907777.741  -6831781.822
10 0 59528  57702.000000  0     579358.540   1350795.730  -6736804.745
10 0 59528  57822.000000  0    1375318.344   1756470.340  -6524334.845
10 0 59528  57942.000000  0    2154164.891   2117935.113  -6198026.399
10 0 59528  58062.000000  0    2901554.443   2429328.284  -5763501.420
10 0 59528  58182.000000  0    3603569.139   2685887.956  -5228261.458
10 0 59528  58302.000000  0    4246975.063   2884026.229  -4601570.334
10 0 59528  58422.000000  0    4819475.510   3021381.404  -3894305.268
10 0 59528  58542.000000  0    5309951.876   3096845.499  -3118776.748
10 0 59528  58662.000000  0    5708686.632   3110567.278  -2288521.639
10 0 59528  58782.000000  0    6007565.899   3063930.709  -1418070.297
10 0 59528  58902.000000  0    6200252.858   2959506.316   -522690.964
10 0 59528  59022.000000  0    6282328.765   2800978.390    381882.166
10 0 59528  59142.000000  0    6251396.283   2593047.207   1279732.674
10 0 59528  59262.000000  0    6107143.097   2341311.790   2155049.170
10 0 59528  59382.000000  0    5851364.475   2052134.846   2992413.186
10 0 59528  59502.000000  0    5487941.770   1732491.803   3777079.308
10 0 59528  59622.000000  0    5022778.595   1389809.479   4495241.180
10 0 59528  59742.000000  0    4463696.447   1031798.033   5134276.314
10 0 59528  59862.000000  0    3820295.603    666281.024   5682967.946
10 0 59528  59982.000000  0    3103780.037    301026.336   6131700.120
10 0 59528  60102.000000  0    2326753.714    -56416.079   6472619.246
10 0 59528  60222.000000  0    1502994.621   -398867.338   6699765.424
10 0 59528  60342.000000  0     647207.289   -719662.094   6809172.331
10 0 59528  60462.000000  0    -225242.248  -1012777.260   6798931.804
10 0 59528  60582.000000  0   -1098602.203  -1272944.415   6669224.133
10 0 59528  60702.000000  0   -1957018.475  -1495744.679   6422314.039
10 0 59528  60822.000000  0   -2784820.412  -1677683.190   6062512.755
10 0 59528  60942.000000  0   -3566806.282  -1816243.525   5596109.880
10 0 59528  61062.000000  0   -4288527.215  -1909922.565   5031270.605
10 0 59528  61182.000000  0   -4936559.953  -1958243.661   4377897.761
10 0 59528  61302.000000  0   -5498763.799  -1961747.013   3647461.766
10 0 59528  61422.000000  0   -5964515.585  -1921957.295   2852801.627
10 0 59528  61542.000000  0   -6324919.189  -1841330.530   2007900.730
10 0 59528  61662.000000  0   -6572986.076  -1723181.260   1127638.146
10 0 59528  61782.000000  0   -6703777.415  -1571590.046    227519.083
10 0 59528  61902.000000  0   -6714505.617  -1391294.018   -676606.217
10 0 59528  62022.000000  0   -6604592.413  -1187563.528  -1568831.021
10 0 59528  62142.000000  0   -6375681.846   -966068.472  -2433480.299
10 0 59528  62262.000000  0   -6031609.190   -732738.336  -3255392.370
10 0 59528  62382.000000  0   -5578326.413   -493618.609  -4020188.999
10 0 59528  62502.000000  0   -5023786.774   -254726.494  -4714527.195
10 0 59528  62622.000000  0   -4377792.423    -21910.826  -5326328.151
10 0 59528  62742.000000  0   -3651809.244    199280.455  -5844980.570
10 0 59528  62862.000000  0   -2858753.121    403722.929  -6261513.903
10 0 59528  62982.000000  0   -2012755.015    586825.818  -6568740.893
10 0 59528  63102.000000  0   -1128907.971    744627.342  -6761370.844
10 0 59528  63222.000000  0    -222999.889    873875.087  -6836090.547
99
